IRIDIUM 26              
1 24903U 97043A   25173.33845742  .00000293  00000+0  91866-4 0  9992
2 24903  86.3958 108.4593 0002471  84.1293 276.0186 14.37149507457489
IRIDIUM 22              
1 24907U 97043E   25173.55127067  .00000241  00000+0  76258-4 0  9994
2 24907  86.3964 111.9139 0002266  83.7381 276.4074 14.35961634457548
DUMMY MASS 1            
1 24925U 97048A   25173.32971376  .00000321  00000+0  32683-4 0  9997
2 24925  86.3356 132.9521 0008702 118.4056 241.8047 14.86990133505897
DUMMY MASS 2            
1 24926U 97048B   25173.29271494  .00000307  00000+0  31301-4 0  9998
2 24926  86.3356 134.5770 0009186 128.4592 231.7458 14.86742162505661
IRIDIUM 29              
1 24944U 97051A   25173.36332053  .00000330  00000+0  10586-3 0  9996
2 24944  86.3972 141.7271 0002096  87.9781 272.1656 14.36471977454012
IRIDIUM 33              
1 24946U 97051C   25173.35082035  .00000249  00000+0  80695-4 0  9997
2 24946  86.3887 140.9929 0009944  67.5597 292.6651 14.34895666453483
IRIDIUM 28              
1 24948U 97051E   25173.61225308  .00000273  00000+0  84652-4 0  9994
2 24948  86.3976 139.1363 0002771  83.8156 276.3357 14.37389674454628
IRIDIUM 36              
1 24967U 97056C   25173.99237732  .00000293  00000+0  91093-4 0  9994
2 24967  86.3988 170.5604 0002341  82.3477 277.7986 14.37613877453056
